39074,GLOBALSTAR M094,2013,114.08,700.0,+,52.0,Active,1,LEO,Kazakhstan,Globalstar,Commercial,Communications,Soyuz,1 39074U 13005C   24126.61665494 -.00000069  00000+0  19464-3 0  9990,2 39074  51.9973 343.0496 0001076  90.8108 269.2882 12.62265368520902,12.62265368,0.0001076,LEO
39075,GLOBALSTAR M096,2013,114.08,700.0,+,52.01,Active,1,LEO,Kazakhstan,Globalstar,Commercial,Communications,Soyuz,1 39075U 13005D   24125.99629140 -.00000089  00000+0  84971-4 0  9997,2 39075  52.0094  33.1319 0001047  72.9056 287.1925 12.62264991519749,12.62264991,0.0001047,LEO
39076,GLOBALSTAR M078,2013,114.08,700.0,+,51.98,Active,1,LEO,Kazakhstan,Globalstar,Commercial,Communications,Soyuz,1 39076U 13005E   24126.36636508 -.00000092  00000+0  67800-4 0  9992,2 39076  51.9848 117.0734 0001142  13.4263 346.6634 12.62268497518410,12.62268497,0.0001142,LEO
39077,GLOBALSTAR M095,2013,114.08,700.0,+,51.98,Active,1,LEO,Kazakhstan,Globalstar,Commercial,Communications,Soyuz,1 39077U 13005F   24126.39195464 -.00000092  00000+0  65413-4 0  9995,2 39077  51.9779 114.3889 0000937  41.6147 318.4790 12.62265921518273,12.62265921,9.37e-05,LEO
52888,GLOBALSTAR M087,2022,107.66,715.0,+,51.98,Active,1,LEO,USA,USA,Commercial,Communications,Falcon,1 52888U 22064A   24126.59148943 -.00000067  00000+0  11570-3 0  9993,2 52888  51.9773 356.9104 0008608 255.7575 104.2370 13.37572287 91823,13.37572287,0.0008608,LEO
